[{"OBJECT_NAME":"STARLINK-34670","OBJECT_ID":"2025-192W","EPOCH":"2026-03-09T22:00:01.999584","MEAN_MOTION":15.30166824,"ECCENTRICITY":7.724e-5,"INCLINATION":53.1592,"RA_OF_ASC_NODE":231.1174,"ARG_OF_PERICENTER":69.7425,"MEAN_ANOMALY":212.3014,"EPHEMERIS_TYPE":0,"CLASSIFICATION_TYPE":"U","NORAD_CAT_ID":65424,"ELEMENT_SET_NO":999,"REV_AT_EPOCH":589,"BSTAR":0.002753146,"MEAN_MOTION_DOT":0.00082,"MEAN_MOTION_DDOT":0},{"OBJECT_NAME":"CZ-6A DEB","OBJECT_ID":"2022-151QV","EPOCH":"2026-03-09T04:36:08.895168","MEAN_MOTION":15.24642942,"ECCENTRICITY":0.00273347,"INCLINATION":98.639,"RA_OF_ASC_NODE":154.2763,"ARG_OF_PERICENTER":174.5721,"MEAN_ANOMALY":185.5815,"EPHEMERIS_TYPE":0,"CLASSIFICATION_TYPE":"U","NORAD_CAT_ID":54908,"ELEMENT_SET_NO":999,"REV_AT_EPOCH":17373,"BSTAR":0.0098290719,"MEAN_MOTION_DOT":0.00253193,"MEAN_MOTION_DDOT":0}]
